{
    "links": {
        "self": "http://www.neowsapp.com/rest/v1/neo/3838854?api_key=iIulBulltgU6a56xZRHN4H3l9WmuAYTsLGpBGhQ2"
    },
    "id": "3838854",
    "neo_reference_id": "3838854",
    "name": "(2019 DE1)",
    "designation": "2019 DE1",
    "nasa_jpl_url": "http://ssd.jpl.nasa.gov/sbdb.cgi?sstr=3838854",
    "absolute_magnitude_h": 22.8,
    "estimated_diameter": {
        "kilometers": {
            "estimated_diameter_min": 0.0732073989,
            "estimated_diameter_max": 0.1636967205
        },
        "meters": {
            "estimated_diameter_min": 73.2073989347,
            "estimated_diameter_max": 163.696720474
        },
        "miles": {
            "estimated_diameter_min": 0.0454889547,
            "estimated_diameter_max": 0.1017163949
        },
        "feet": {
            "estimated_diameter_min": 240.181762721,
            "estimated_diameter_max": 537.0627483999
        }
    },
    "is_potentially_hazardous_asteroid": false,
    "close_approach_data": [
        {
            "close_approach_date": "2019-02-14",
            "close_approach_date_full": "2019-Feb-14 06:13",
            "epoch_date_close_approach": 1550124780000,
            "relative_velocity": {
                "kilometers_per_second": "14.544107482",
                "kilometers_per_hour": "52358.7869353534",
                "miles_per_hour": "32533.7140265811"
            },
            "miss_distance": {
                "astronomical": "0.1495543815",
                "lunar": "58.1766544035",
                "kilometers": "22373016.921567405",
                "miles": "13901948.073163989"
            },
            "orbiting_body": "Earth"
        }
    ],
    "orbital_data": {
        "orbit_id": "4",
        "orbit_determination_date": "2019-03-06 06:58:01",
        "first_observation_date": "2019-02-26",
        "last_observation_date": "2019-03-06",
        "data_arc_in_days": 8,
        "observations_used": 37,
        "orbit_uncertainty": "8",
        "minimum_orbit_intersection": ".119991",
        "jupiter_tisserand_invariant": "3.887",
        "epoch_osculation": "2458543.5",
        "eccentricity": ".4393344497982603",
        "semi_major_axis": "1.771260213018936",
        "inclination": "25.1096016535123",
        "ascending_node_longitude": "154.8969522172474",
        "orbital_period": "861.0373248273786",
        "perihelion_distance": ".9930845818827125",
        "perihelion_argument": "306.8899998189265",
        "aphelion_distance": "2.54943584415516",
        "perihelion_time": "2458486.165271426119",
        "mean_anomaly": "23.97166962620951",
        "mean_motion": ".4181003420173139",
        "equinox": "J2000",
        "orbit_class": {
            "orbit_class_type": "APO",
            "orbit_class_description": "Near-Earth asteroid orbits which cross the Earth’s orbit similar to that of 1862 Apollo",
            "orbit_class_range": "a (semi-major axis) > 1.0 AU; q (perihelion) < 1.017 AU"
        }
    },
    "is_sentry_object": false
}